[{"OBJECT_NAME":"STARLINK-30471","OBJECT_ID":"2023-147V","EPOCH":"2026-03-09T22:00:01.999584","MEAN_MOTION":15.22696665,"ECCENTRICITY":0.00019119,"INCLINATION":42.9989,"RA_OF_ASC_NODE":323.1894,"ARG_OF_PERICENTER":261.2581,"MEAN_ANOMALY":12.9652,"EPHEMERIS_TYPE":0,"CLASSIFICATION_TYPE":"U","NORAD_CAT_ID":57932,"ELEMENT_SET_NO":999,"REV_AT_EPOCH":573,"BSTAR":0.038177266,"MEAN_MOTION_DOT":0.00985907,"MEAN_MOTION_DDOT":0},{"OBJECT_NAME":"NEONSAT-1","OBJECT_ID":"2024-077A","EPOCH":"2026-03-09T22:26:06.154944","MEAN_MOTION":15.35891462,"ECCENTRICITY":0.00098814,"INCLINATION":97.3521,"RA_OF_ASC_NODE":152.9367,"ARG_OF_PERICENTER":35.5885,"MEAN_ANOMALY":324.6016,"EPHEMERIS_TYPE":0,"CLASSIFICATION_TYPE":"U","NORAD_CAT_ID":59587,"ELEMENT_SET_NO":999,"REV_AT_EPOCH":10448,"BSTAR":0.00040888908,"MEAN_MOTION_DOT":0.00014234,"MEAN_MOTION_DDOT":0}]
